{
  "type": "FeatureCollection",
  "features": [
    {
      "type": "Feature",
      "properties": {
        "norad_id": 36036,
        "name": "SMOS",
        "group": "resource",
        "lat": -56.97276587033972,
        "lon": 177.0259238168826,
        "alt_km": 766.6977925670653,
        "timestamp": "2025-12-04T15:47:53.752770+00:00",
        "meta_object_name": "SMOS",
        "meta_object_id": "2009-059A",
        "meta_epoch": "2025-12-04T02:43:26.424192",
        "meta_mean_motion": 14.3979047,
        "meta_eccentricity": 0.00010223,
        "meta_inclination": 98.4384,
        "meta_ra_of_asc_node": 163.2893,
        "meta_arg_of_pericenter": 71.8401,
        "meta_mean_anomaly": 288.2899,
        "meta_ephemeris_type": 0,
        "meta_classification_type": "U",
        "meta_norad_cat_id": 36036,
        "meta_element_set_no": 999,
        "meta_rev_at_epoch": 84538,
        "meta_bstar": 0.00025734118,
        "meta_mean_motion_dot": 7.64e-06,
        "meta_mean_motion_ddot": 0,
        "tle_line1": "1 36036U 09059A   25338.11350028  .00000764  00000+0  25734-3 0  9992",
        "tle_line2": "2 36036  98.4384 163.2893 0001022  71.8401 288.2899 14.39790470845382"
      },
      "geometry": {
        "type": "Point",
        "coordinates": [
          177.0259238168826,
          -56.97276587033972
        ]
      }
    },
    {
      "type": "Feature",
      "properties": {
        "norad_id": 36110,
        "name": "YAOGAN-7",
        "group": "resource",
        "lat": 73.96747472550234,
        "lon": 69.86870303934266,
        "alt_km": 644.5972664529354,
        "timestamp": "2025-12-04T15:47:53.752780+00:00",
        "meta_object_name": "YAOGAN-7",
        "meta_object_id": "2009-069A",
        "meta_epoch": "2025-12-04T05:34:43.330080",
        "meta_mean_motion": 14.77713153,
        "meta_eccentricity": 0.00237508,
        "meta_inclination": 98.0303,
        "meta_ra_of_asc_node": 220.0196,
        "meta_arg_of_pericenter": 310.0549,
        "meta_mean_anomaly": 49.8578,
        "meta_ephemeris_type": 0,
        "meta_classification_type": "U",
        "meta_norad_cat_id": 36110,
        "meta_element_set_no": 999,
        "meta_rev_at_epoch": 86083,
        "meta_bstar": 0.00020574845,
        "meta_mean_motion_dot": 1.428e-05,
        "meta_mean_motion_ddot": 0,
        "tle_line1": "1 36110U 09069A   25338.23244595  .00001428  00000+0  20575-3 0  9996",
        "tle_line2": "2 36110  98.0303 220.0196 0023750 310.0549  49.8578 14.77713153860830"
      },
      "geometry": {
        "type": "Point",
        "coordinates": [
          69.86870303934266,
          73.96747472550234
        ]
      }
    },
    {
      "type": "Feature",
      "properties": {
        "norad_id": 36605,
        "name": "TANDEM-X",
        "group": "resource",
        "lat": -45.985283108396835,
        "lon": 156.37852062283093,
        "alt_km": 516.0689367834775,
        "timestamp": "2025-12-04T15:47:53.752791+00:00",
        "meta_object_name": "TANDEM-X",
        "meta_object_id": "2010-030A",
        "meta_epoch": "2025-12-03T15:05:32.620128",
        "meta_mean_motion": 15.19160106,
        "meta_eccentricity": 0.00017772,
        "meta_inclination": 97.4443,
        "meta_ra_of_asc_node": 343.1419,
        "meta_arg_of_pericenter": 93.6994,
        "meta_mean_anomaly": 266.4444,
        "meta_ephemeris_type": 0,
        "meta_classification_type": "U",
        "meta_norad_cat_id": 36605,
        "meta_element_set_no": 999,
        "meta_rev_at_epoch": 85695,
        "meta_bstar": 0.00010004139,
        "meta_mean_motion_dot": 2.035e-05,
        "meta_mean_motion_ddot": 0,
        "tle_line1": "1 36605U 10030A   25337.62884977  .00002035  00000+0  10004-3 0  9992",
        "tle_line2": "2 36605  97.4443 343.1419 0001777  93.6994 266.4444 15.19160106856953"
      },
      "geometry": {
        "type": "Point",
        "coordinates": [
          156.37852062283093,
          -45.985283108396835
        ]
      }
    },
    {
      "type": "Feature",
      "properties": {
        "norad_id": 36795,
        "name": "CARTOSAT-2B",
        "group": "resource",
        "lat": 0.6996115390573385,
        "lon": 27.85508546007338,
        "alt_km": 637.7554848530899,
        "timestamp": "2025-12-04T15:47:53.752801+00:00",
        "meta_object_name": "CARTOSAT-2B",
        "meta_object_id": "2010-035A",
        "meta_epoch": "2025-12-04T07:40:30.967968",
        "meta_mean_motion": 14.7876927,
        "meta_eccentricity": 0.00128862,
        "meta_inclination": 97.7865,
        "meta_ra_of_asc_node": 27.6233,
        "meta_arg_of_pericenter": 102.2984,
        "meta_mean_anomaly": 257.9671,
        "meta_ephemeris_type": 0,
        "meta_classification_type": "U",
        "meta_norad_cat_id": 36795,
        "meta_element_set_no": 999,
        "meta_rev_at_epoch": 83105,
        "meta_bstar": 0.00021446399,
        "meta_mean_motion_dot": 1.528e-05,
        "meta_mean_motion_ddot": 0,
        "tle_line1": "1 36795U 10035A   25338.31980287  .00001528  00000+0  21446-3 0  9993",
        "tle_line2": "2 36795  97.7865  27.6233 0012886 102.2984 257.9671 14.78769270831053"
      },
      "geometry": {
        "type": "Point",
        "coordinates": [
          27.85508546007338,
          0.6996115390573385
        ]
      }
    },
    {
      "type": "Feature",
      "properties": {
        "norad_id": 36834,
        "name": "YAOGAN-10",
        "group": "resource",
        "lat": -81.80030927145997,
        "lon": 73.44093533014058,
        "alt_km": 623.3697069563405,
        "timestamp": "2025-12-04T15:47:53.752812+00:00",
        "meta_object_name": "YAOGAN-10",
        "meta_object_id": "2010-038A",
        "meta_epoch": "2025-12-03T19:57:32.552064",
        "meta_mean_motion": 14.84554289,
        "meta_eccentricity": 0.00015101,
        "meta_inclination": 97.915,
        "meta_ra_of_asc_node": 357.7191,
        "meta_arg_of_pericenter": 84.468,
        "meta_mean_anomaly": 92.504,
        "meta_ephemeris_type": 0,
        "meta_classification_type": "U",
        "meta_norad_cat_id": 36834,
        "meta_element_set_no": 999,
        "meta_rev_at_epoch": 82821,
        "meta_bstar": 0.00024459282,
        "meta_mean_motion_dot": 2.01e-05,
        "meta_mean_motion_ddot": 0,
        "tle_line1": "1 36834U 10038A   25337.83162676  .00002010  00000+0  24459-3 0  9994",
        "tle_line2": "2 36834  97.9150 357.7191 0001510  84.4680  92.5040 14.84554289828218"
      },
      "geometry": {
        "type": "Point",
        "coordinates": [
          73.44093533014058,
          -81.80030927145997
        ]
      }
    },
    {
      "type": "Feature",
      "properties": {
        "norad_id": 37216,
        "name": "COSMO-SKYMED 4",
        "group": "resource",
        "lat": -81.04056542520881,
        "lon": -81.36650176844329,
        "alt_km": 630.8630189005389,
        "timestamp": "2025-12-04T15:47:53.752822+00:00",
        "meta_object_name": "COSMO-SKYMED 4",
        "meta_object_id": "2010-060A",
        "meta_epoch": "2025-12-04T08:07:18.876288",
        "meta_mean_motion": 14.82152753,
        "meta_eccentricity": 0.00013946,
        "meta_inclination": 97.8808,
        "meta_ra_of_asc_node": 159.7882,
        "meta_arg_of_pericenter": 82.9306,
        "meta_mean_anomaly": 277.2066,
        "meta_ephemeris_type": 0,
        "meta_classification_type": "U",
        "meta_norad_cat_id": 37216,
        "meta_element_set_no": 999,
        "meta_rev_at_epoch": 81570,
        "meta_bstar": 0.00014797282,
        "meta_mean_motion_dot": 1.126e-05,
        "meta_mean_motion_ddot": 0,
        "tle_line1": "1 37216U 10060A   25338.33841292  .00001126  00000+0  14797-3 0  9999",
        "tle_line2": "2 37216  97.8808 159.7882 0001394  82.9306 277.2066 14.82152753815705"
      },
      "geometry": {
        "type": "Point",
        "coordinates": [
          -81.36650176844329,
          -81.04056542520881
        ]
      }
    },
    {
      "type": "Feature",
      "properties": {
        "norad_id": 37387,
        "name": "RESOURCESAT-2",
        "group": "resource",
        "lat": -9.759906883980504,
        "lon": -139.278861105152,
        "alt_km": 826.9548974509144,
        "timestamp": "2025-12-04T15:47:53.752833+00:00",
        "meta_object_name": "RESOURCESAT-2",
        "meta_object_id": "2011-015A",
        "meta_epoch": "2025-12-04T06:27:46.984320",
        "meta_mean_motion": 14.21592148,
        "meta_eccentricity": 0.00067553,
        "meta_inclination": 98.7888,
        "meta_ra_of_asc_node": 41.8588,
        "meta_arg_of_pericenter": 64.4192,
        "meta_mean_anomaly": 295.7683,
        "meta_ephemeris_type": 0,
        "meta_classification_type": "U",
        "meta_norad_cat_id": 37387,
        "meta_element_set_no": 999,
        "meta_rev_at_epoch": 75848,
        "meta_bstar": 0.00018150577,
        "meta_mean_motion_dot": 3.54e-06,
        "meta_mean_motion_ddot": 0,
        "tle_line1": "1 37387U 11015A   25338.26929380  .00000354  00000+0  18151-3 0  9996",
        "tle_line2": "2 37387  98.7888  41.8588 0006755  64.4192 295.7683 14.21592148758480"
      },
      "geometry": {
        "type": "Point",
        "coordinates": [
          -139.278861105152,
          -9.759906883980504
        ]
      }
    }
  ]
}